[{"OBJECT_NAME":"ONEWEB-0223","OBJECT_ID":"2021-045B","EPOCH":"2026-02-01T17:38:38.420160","MEAN_MOTION":13.15548659,"ECCENTRICITY":0.00011245,"INCLINATION":87.8997,"RA_OF_ASC_NODE":286.226,"ARG_OF_PERICENTER":86.0079,"MEAN_ANOMALY":274.118,"EPHEMERIS_TYPE":0,"CLASSIFICATION_TYPE":"U","NORAD_CAT_ID":48768,"ELEMENT_SET_NO":999,"REV_AT_EPOCH":22659,"BSTAR":-0.00015905321,"MEAN_MOTION_DOT":-4.7e-7,"MEAN_MOTION_DDOT":0},{"OBJECT_NAME":"ONEWEB-0230","OBJECT_ID":"2021-045C","EPOCH":"2026-02-01T16:57:33.777216","MEAN_MOTION":13.15548042,"ECCENTRICITY":0.00016245,"INCLINATION":87.8989,"RA_OF_ASC_NODE":286.2577,"ARG_OF_PERICENTER":73.8675,"MEAN_ANOMALY":286.2634,"EPHEMERIS_TYPE":0,"CLASSIFICATION_TYPE":"U","NORAD_CAT_ID":48769,"ELEMENT_SET_NO":999,"REV_AT_EPOCH":22685,"BSTAR":0.0001884068,"MEAN_MOTION_DOT":8.4e-7,"MEAN_MOTION_DDOT":0},{"OBJECT_NAME":"ONEWEB-0237","OBJECT_ID":"2021-045D","EPOCH":"2026-02-01T18:31:06.567456","MEAN_MOTION":13.15548657,"ECCENTRICITY":0.00012646,"INCLINATION":87.8991,"RA_OF_ASC_NODE":286.2462,"ARG_OF_PERICENTER":75.1935,"MEAN_ANOMALY":284.9335,"EPHEMERIS_TYPE":0,"CLASSIFICATION_TYPE":"U","NORAD_CAT_ID":48770,"ELEMENT_SET_NO":999,"REV_AT_EPOCH":22658,"BSTAR":0.00041018265,"MEAN_MOTION_DOT":1.67e-6,"MEAN_MOTION_DDOT":0},{"OBJECT_NAME":"ONEWEB-0235","OBJECT_ID":"2021-045E","EPOCH":"2026-02-01T17:54:36.362880","MEAN_MOTION":13.15548353,"ECCENTRICITY":0.00010806,"INCLINATION":87.8995,"RA_OF_ASC_NODE":286.2246,"ARG_OF_PERICENTER":80.3018,"MEAN_ANOMALY":279.8234,"EPHEMERIS_TYPE":0,"CLASSIFICATION_TYPE":"U","NORAD_CAT_ID":48771,"ELEMENT_SET_NO":999,"REV_AT_EPOCH":22657,"BSTAR":9.535091e-5,"MEAN_MOTION_DOT":4.9e-7,"MEAN_MOTION_DDOT":0},{"OBJECT_NAME":"ONEWEB-0242","OBJECT_ID":"2021-045F","EPOCH":"2026-02-01T23:14:02.790240","MEAN_MOTION":13.15548367,"ECCENTRICITY":0.00014181,"INCLINATION":87.8996,"RA_OF_ASC_NODE":286.1753,"ARG_OF_PERICENTER":74.3957,"MEAN_ANOMALY":285.7329,"EPHEMERIS_TYPE":0,"CLASSIFICATION_TYPE":"U","NORAD_CAT_ID":48772,"ELEMENT_SET_NO":999,"REV_AT_EPOCH":22664,"BSTAR":1.8667414e-5,"MEAN_MOTION_DOT":2.0e-7,"MEAN_MOTION_DDOT":0},{"OBJECT_NAME":"ONEWEB-0241","OBJECT_ID":"2021-045G","EPOCH":"2026-02-01T17:27:13.203360","MEAN_MOTION":13.15548442,"ECCENTRICITY":0.00012665,"INCLINATION":87.899,"RA_OF_ASC_NODE":286.2563,"ARG_OF_PERICENTER":90.4765,"MEAN_ANOMALY":269.6511,"EPHEMERIS_TYPE":0,"CLASSIFICATION_TYPE":"U","NORAD_CAT_ID":48773,"ELEMENT_SET_NO":999,"REV_AT_EPOCH":22652,"BSTAR":-0.00021311042,"MEAN_MOTION_DOT":-6.7e-7,"MEAN_MOTION_DDOT":0},{"OBJECT_NAME":"ONEWEB-0243","OBJECT_ID":"2021-045H","EPOCH":"2026-02-01T18:12:51.272064","MEAN_MOTION":13.1554871,"ECCENTRICITY":0.00012015,"INCLINATION":87.8989,"RA_OF_ASC_NODE":286.2607,"ARG_OF_PERICENTER":70.3043,"MEAN_ANOMALY":289.8217,"EPHEMERIS_TYPE":0,"CLASSIFICATION_TYPE":"U","NORAD_CAT_ID":48774,"ELEMENT_SET_NO":999,"REV_AT_EPOCH":22655,"BSTAR":0.00043766204,"MEAN_MOTION_DOT":1.78e-6,"MEAN_MOTION_DDOT":0},{"OBJECT_NAME":"ONEWEB-0222","OBJECT_ID":"2021-045J","EPOCH":"2026-02-01T17:48:53.548416","MEAN_MOTION":13.15548851,"ECCENTRICITY":0.00013832,"INCLINATION":87.8995,"RA_OF_ASC_NODE":286.2208,"ARG_OF_PERICENTER":81.6519,"MEAN_ANOMALY":278.4768,"EPHEMERIS_TYPE":0,"CLASSIFICATION_TYPE":"U","NORAD_CAT_ID":48775,"ELEMENT_SET_NO":999,"REV_AT_EPOCH":22659,"BSTAR":-4.1164742e-5,"MEAN_MOTION_DOT":-3.0e-8,"MEAN_MOTION_DDOT":0},{"OBJECT_NAME":"ONEWEB-0244","OBJECT_ID":"2021-045K","EPOCH":"2026-02-01T16:37:01.724448","MEAN_MOTION":13.15548239,"ECCENTRICITY":0.00013847,"INCLINATION":87.9003,"RA_OF_ASC_NODE":286.2206,"ARG_OF_PERICENTER":75.5575,"MEAN_ANOMALY":284.5709,"EPHEMERIS_TYPE":0,"CLASSIFICATION_TYPE":"U","NORAD_CAT_ID":48776,"ELEMENT_SET_NO":999,"REV_AT_EPOCH":22715,"BSTAR":0.00038803951,"MEAN_MOTION_DOT":1.59e-6,"MEAN_MOTION_DDOT":0},{"OBJECT_NAME":"ONEWEB-0247","OBJECT_ID":"2021-045L","EPOCH":"2026-02-01T16:32:27.210912","MEAN_MOTION":13.1554938,"ECCENTRICITY":7.664e-5,"INCLINATION":87.8985,"RA_OF_ASC_NODE":286.2699,"ARG_OF_PERICENTER":57.9966,"MEAN_ANOMALY":302.1239,"EPHEMERIS_TYPE":0,"CLASSIFICATION_TYPE":"U","NORAD_CAT_ID":48777,"ELEMENT_SET_NO":999,"REV_AT_EPOCH":22659,"BSTAR":0.00039208723,"MEAN_MOTION_DOT":1.6e-6,"MEAN_MOTION_DDOT":0},{"OBJECT_NAME":"ONEWEB-0245","OBJECT_ID":"2021-045M","EPOCH":"2026-02-01T18:15:08.674848","MEAN_MOTION":13.15548832,"ECCENTRICITY":0.00014615,"INCLINATION":87.8995,"RA_OF_ASC_NODE":286.223,"ARG_OF_PERICENTER":87.1462,"MEAN_ANOMALY":272.9835,"EPHEMERIS_TYPE":0,"CLASSIFICATION_TYPE":"U","NORAD_CAT_ID":48778,"ELEMENT_SET_NO":999,"REV_AT_EPOCH":22657,"BSTAR":0.00052216986,"MEAN_MOTION_DOT":2.09e-6,"MEAN_MOTION_DDOT":0},{"OBJECT_NAME":"ONEWEB-0229","OBJECT_ID":"2021-045N","EPOCH":"2026-02-01T18:08:17.641536","MEAN_MOTION":13.15548414,"ECCENTRICITY":0.00014585,"INCLINATION":87.8995,"RA_OF_ASC_NODE":286.2219,"ARG_OF_PERICENTER":74.4888,"MEAN_ANOMALY":285.6403,"EPHEMERIS_TYPE":0,"CLASSIFICATION_TYPE":"U","NORAD_CAT_ID":48779,"ELEMENT_SET_NO":999,"REV_AT_EPOCH":22660,"BSTAR":0.0003641769,"MEAN_MOTION_DOT":1.5e-6,"MEAN_MOTION_DDOT":0},{"OBJECT_NAME":"ONEWEB-0228","OBJECT_ID":"2021-045P","EPOCH":"2026-02-01T17:06:52.810272","MEAN_MOTION":13.15548037,"ECCENTRICITY":0.00014439,"INCLINATION":87.9002,"RA_OF_ASC_NODE":286.2165,"ARG_OF_PERICENTER":81.5685,"MEAN_ANOMALY":278.5609,"EPHEMERIS_TYPE":0,"CLASSIFICATION_TYPE":"U","NORAD_CAT_ID":48780,"ELEMENT_SET_NO":999,"REV_AT_EPOCH":22651,"BSTAR":-0.0001957093,"MEAN_MOTION_DOT":-6.1e-7,"MEAN_MOTION_DDOT":0},{"OBJECT_NAME":"ONEWEB-0232","OBJECT_ID":"2021-045Q","EPOCH":"2026-02-01T16:30:11.034144","MEAN_MOTION":13.15548554,"ECCENTRICITY":0.00015181,"INCLINATION":87.9006,"RA_OF_ASC_NODE":286.2188,"ARG_OF_PERICENTER":77.7415,"MEAN_ANOMALY":282.3885,"EPHEMERIS_TYPE":0,"CLASSIFICATION_TYPE":"U","NORAD_CAT_ID":48781,"ELEMENT_SET_NO":999,"REV_AT_EPOCH":22683,"BSTAR":0.00040755038,"MEAN_MOTION_DOT":1.66e-6,"MEAN_MOTION_DDOT":0},{"OBJECT_NAME":"ONEWEB-0231","OBJECT_ID":"2021-045R","EPOCH":"2026-02-01T17:47:46.541760","MEAN_MOTION":13.15537061,"ECCENTRICITY":0.00012012,"INCLINATION":87.8986,"RA_OF_ASC_NODE":286.2395,"ARG_OF_PERICENTER":79.7986,"MEAN_ANOMALY":280.3279,"EPHEMERIS_TYPE":0,"CLASSIFICATION_TYPE":"U","NORAD_CAT_ID":48782,"ELEMENT_SET_NO":999,"REV_AT_EPOCH":22653,"BSTAR":0.0053527798,"MEAN_MOTION_DOT":2.028e-5,"MEAN_MOTION_DDOT":0},{"OBJECT_NAME":"ONEWEB-0234","OBJECT_ID":"2021-045S","EPOCH":"2026-02-01T18:42:19.580256","MEAN_MOTION":13.15547882,"ECCENTRICITY":0.00020943,"INCLINATION":87.8994,"RA_OF_ASC_NODE":286.2104,"ARG_OF_PERICENTER":98.8331,"MEAN_ANOMALY":261.3037,"EPHEMERIS_TYPE":0,"CLASSIFICATION_TYPE":"U","NORAD_CAT_ID":48783,"ELEMENT_SET_NO":999,"REV_AT_EPOCH":22667,"BSTAR":0.00016608656,"MEAN_MOTION_DOT":7.5e-7,"MEAN_MOTION_DDOT":0},{"OBJECT_NAME":"ONEWEB-0238","OBJECT_ID":"2021-045T","EPOCH":"2026-02-01T18:42:42.559200","MEAN_MOTION":13.15547563,"ECCENTRICITY":0.00018054,"INCLINATION":87.8995,"RA_OF_ASC_NODE":286.2035,"ARG_OF_PERICENTER":90.4857,"MEAN_ANOMALY":269.648,"EPHEMERIS_TYPE":0,"CLASSIFICATION_TYPE":"U","NORAD_CAT_ID":48784,"ELEMENT_SET_NO":999,"REV_AT_EPOCH":22657,"BSTAR":0.0002167649,"MEAN_MOTION_DOT":9.4e-7,"MEAN_MOTION_DDOT":0}]
