ONEWEB-0223             
1 48768U 21045B   26032.73516690 -.00000047  00000+0 -15905-3 0  9990
2 48768  87.8997 286.2260 0001124  86.0079 274.1180 13.15548659226591
ONEWEB-0230             
1 48769U 21045C   26032.70664094  .00000084  00000+0  18841-3 0  9991
2 48769  87.8989 286.2577 0001624  73.8675 286.2634 13.15548042226858
ONEWEB-0237             
1 48770U 21045D   26032.77160379  .00000167  00000+0  41018-3 0  9991
2 48770  87.8991 286.2462 0001264  75.1935 284.9335 13.15548657226585
ONEWEB-0235             
1 48771U 21045E   26032.74625420  .00000049  00000+0  95351-4 0  9991
2 48771  87.8995 286.2246 0001080  80.3018 279.8234 13.15548353226579
ONEWEB-0242             
1 48772U 21045F   26032.96808785  .00000020  00000+0  18667-4 0  9997
2 48772  87.8996 286.1753 0001418  74.3957 285.7329 13.15548367226647
ONEWEB-0241             
1 48773U 21045G   26032.72723615 -.00000067  00000+0 -21311-3 0  9992
2 48773  87.8990 286.2563 0001266  90.4765 269.6511 13.15548442226524
ONEWEB-0243             
1 48774U 21045H   26032.75892676  .00000178  00000+0  43766-3 0  9999
2 48774  87.8989 286.2607 0001201  70.3043 289.8217 13.15548710226555
ONEWEB-0222             
1 48775U 21045J   26032.74228644 -.00000003  00000+0 -41165-4 0  9998
2 48775  87.8995 286.2208 0001383  81.6519 278.4768 13.15548851226599
ONEWEB-0244             
1 48776U 21045K   26032.69238107  .00000159  00000+0  38804-3 0  9993
2 48776  87.9003 286.2206 0001384  75.5575 284.5709 13.15548239227150
ONEWEB-0247             
1 48777U 21045L   26032.68920383  .00000160  00000+0  39209-3 0  9999
2 48777  87.8985 286.2699 0000766  57.9966 302.1239 13.15549380226596
ONEWEB-0245             
1 48778U 21045M   26032.76051707  .00000209  00000+0  52217-3 0  9992
2 48778  87.8995 286.2230 0001461  87.1462 272.9835 13.15548832226573
ONEWEB-0229             
1 48779U 21045N   26032.75575974  .00000150  00000+0  36418-3 0  9999
2 48779  87.8995 286.2219 0001458  74.4888 285.6403 13.15548414226600
ONEWEB-0228             
1 48780U 21045P   26032.71311123 -.00000061  00000+0 -19571-3 0  9995
2 48780  87.9002 286.2165 0001443  81.5685 278.5609 13.15548037226510
ONEWEB-0232             
1 48781U 21045Q   26032.68762771  .00000166  00000+0  40755-3 0  9993
2 48781  87.9006 286.2188 0001518  77.7415 282.3885 13.15548554226839
ONEWEB-0231             
1 48782U 21045R   26032.74151090  .00002028  00000+0  53528-2 0  9997
2 48782  87.8986 286.2395 0001201  79.7986 280.3279 13.15537061226533
ONEWEB-0234             
1 48783U 21045S   26032.77939329  .00000075  00000+0  16609-3 0  9990
2 48783  87.8994 286.2104 0002094  98.8331 261.3037 13.15547882226676
ONEWEB-0238             
1 48784U 21045T   26032.77965925  .00000094  00000+0  21676-3 0  9993
2 48784  87.8995 286.2035 0001805  90.4857 269.6480 13.15547563226579
